H1 CPF  1  MCC 2022  8 23 11  7351 larets
H2  0304206 5557    27944 2022 08 22 23 45 00 2022 08 27 23 57 00   180 1 1  0 0 0
H9
10 0 59814 68220.000000 0     -2370503.559      5439580.597     -3843738.425
10 0 59814 68400.000000 0     -2324114.458      6120379.689     -2661916.580
10 0 59814 68580.000000 0     -2178397.177      6576362.301     -1382721.753
10 0 59814 68760.000000 0     -1944652.939      6788054.114       -52854.289
10 0 59814 68940.000000 0     -1637824.595      6745249.296      1278942.784
10 0 59814 69120.000000 0     -1275713.080      6447544.517      2563723.855
10 0 59814 69300.000000 0      -878062.976      5904444.958      3754206.587
10 0 59814 69480.000000 0      -465572.916      5135053.594      4806566.268
10 0 59814 69660.000000 0       -58881.579      4167357.602      5682093.495
10 0 59814 69840.000000 0       322421.985      3037145.105      6348630.600
10 0 59814 70020.000000 0       660707.477      1786621.307      6781744.299
10 0 59814 70200.000000 0       941094.610       462780.140      6965598.480
10 0 59814 70380.000000 0      1152094.249      -884396.652      6893506.769
10 0 59814 70560.000000 0      1286075.677     -2203846.659      6568162.396
10 0 59814 70740.000000 0      1339544.097     -3445382.646      6001538.842
10 0 59814 70920.000000 0      1313218.121     -4561627.721      5214458.453
10 0 59814 71100.000000 0      1211907.462     -5509853.123      4235840.496
10 0 59814 71280.000000 0      1044199.424     -6253658.796      3101654.483
10 0 59814 71460.000000 0       821963.916     -6764425.571      1853593.509
10 0 59814 71640.000000 0       559697.633     -7022461.896       537518.700
10 0 59814 71820.000000 0       273741.147     -7017794.780      -798266.898
10 0 59814 72000.000000 0       -18592.248     -6750551.135     -2104848.923
10 0 59814 72180.000000 0      -299923.050     -6230908.011     -3334536.932
10 0 59814 72360.000000 0      -553700.023     -5478636.381     -4442623.707
10 0 59814 72540.000000 0      -765039.687     -4522265.502     -5388999.601
10 0 59814 72720.000000 0      -921469.048     -3397922.773     -6139556.442
10 0 59814 72900.000000 0     -1013539.012     -2147916.143     -6667345.132
10 0 59814 73080.000000 0     -1035286.034      -819122.869     -6953462.768
10 0 59814 73260.000000 0      -984528.764       538750.477     -6987659.378
10 0 59814 73440.000000 0      -862989.945      1874980.994     -6768663.119
10 0 59814 73620.000000 0      -676241.362      3139664.781     -6304226.638
10 0 59814 73800.000000 0      -433473.509      4285533.488     -5610896.401
10 0 59814 73980.000000 0      -147092.776      5269704.929     -4713496.545
10 0 59814 74160.000000 0       167841.298      6055309.903     -3644325.830
10 0 59814 74340.000000 0       494321.062      6612933.385     -2442071.401
10 0 59814 74520.000000 0       814212.687      6921801.316     -1150460.626
10 0 59814 74700.000000 0      1109159.580      6970649.272       183314.844
10 0 59814 74880.000000 0      1361523.393      6758212.423      1510347.655
10 0 59814 75060.000000 0      1555309.473      6293298.048      2781857.785
10 0 59814 75240.000000 0      1677025.908      5594436.745      3951044.640
10 0 59814 75420.000000 0      1716433.157      4689124.084      4974868.423
10 0 59814 75600.000000 0      1667141.778      3612683.763      5815677.786
10 0 59814 75780.000000 0      1527024.198      2406820.336      6442601.726
10 0 59814 75960.000000 0      1298428.285      1117947.303      6832670.136
10 0 59814 76140.000000 0       988181.871      -204646.295      6971631.121
10 0 59814 76320.000000 0       607389.298     -1510707.049      6854446.328
10 0 59814 76500.000000 0       171025.691     -2750946.133      6485464.809
10 0 59814 76680.000000 0      -302658.693     -3878921.400      5878261.156
10 0 59814 76860.000000 0      -792897.406     -4852797.856      5055140.964
10 0 59814 77040.000000 0     -1277302.418     -5636929.248      4046344.216
10 0 59814 77220.000000 0     -1732867.964     -6203216.381      2888950.045
10 0 59814 77400.000000 0     -2137035.616     -6532164.051      1625503.801
10 0 59814 77580.000000 0     -2468769.566     -6613585.898       302424.453
10 0 59814 77760.000000 0     -2709582.728     -6446920.993     -1031747.894
10 0 59814 77940.000000 0     -2844460.415     -6041146.409     -2328183.513
10 0 59814 78120.000000 0     -2862637.222     -5414293.836     -3539590.973
10 0 59814 78300.000000 0     -2758186.914     -4592599.612     -4621960.069
10 0 59814 78480.000000 0     -2530397.713     -3609343.181     -5536141.163
10 0 59814 78660.000000 0     -2183924.835     -2503447.883     -6249207.628
10 0 59814 78840.000000 0     -1728719.436     -1317911.982     -6735569.198
10 0 59814 79020.000000 0     -1179738.860       -98136.810     -6977810.185
10 0 59814 79200.000000 0      -556457.135      1109780.982     -6967243.611
10 0 59814 79380.000000 0       117809.806      2260739.750     -6704188.153
10 0 59814 79560.000000 0       816745.677      3312265.915     -6197969.045
10 0 59814 79740.000000 0      1512026.937      4226052.486     -5466638.381
10 0 59814 79920.000000 0      2174437.488      4969353.725     -4536405.916
10 0 59814 80100.000000 0      2775070.842      5516193.362     -3440785.761
10 0 59814 80280.000000 0      3286575.416      5848334.802     -2219461.838
10 0 59814 80460.000000 0      3684391.534      5955964.438      -916896.441
10 0 59814 80640.000000 0      3947917.021      5838043.474       419282.126
10 0 59814 80820.000000 0      4061535.240      5502296.614      1740050.592
10 0 59814 81000.000000 0      4015449.364      4964829.747      2996839.829
10 0 59814 81180.000000 0      3806274.631      4249394.636      4143384.406
10 0 59814 81360.000000 0      3437351.286      3386327.605      5137480.720
10 0 59814 81540.000000 0      2918762.484      2411230.102      5942577.333
10 0 59814 81720.000000 0      2267055.012      1363453.764      6529124.424
10 0 59814 81900.000000 0      1504690.556       284471.926      6875641.032
10 0 59814 82080.000000 0       659244.171      -783787.993      6969475.108
10 0 59814 82260.000000 0      -237615.018     -1800589.676      6807246.295
10 0 59814 82440.000000 0     -1151327.652     -2727957.634      6394956.076
10 0 59814 82620.000000 0     -2045786.160     -3532109.375      5747762.608
10 0 59814 82800.000000 0     -2884766.073     -4184703.143      4889440.163
10 0 59814 82980.000000 0     -3633412.918     -4663867.060      3851529.706
10 0 59814 83160.000000 0     -4259715.327     -4954960.570      2672184.165
10 0 59814 83340.000000 0     -4735888.757     -5051034.210      1394753.610
10 0 59814 83520.000000 0     -5039611.711     -4952966.950        66161.145
10 0 59814 83700.000000 0     -5155049.907     -4669269.756     -1264867.035
10 0 59814 83880.000000 0     -5073613.263     -4215566.433     -2549640.885
10 0 59814 84060.000000 0     -4794402.877     -3613778.085     -3741328.005
10 0 59814 84240.000000 0     -4324333.210     -2891065.173     -4796668.747
10 0 59814 84420.000000 0     -3677936.519     -2078591.028     -5677520.918
10 0 59814 84600.000000 0     -2876867.216     -1210170.210     -6352181.908
10 0 59814 84780.000000 0     -1949137.988      -320865.897     -6796453.783
10 0 59814 84960.000000 0      -928122.127       554403.923     -6994430.077
10 0 59814 85140.000000 0       148633.015      1382198.879     -6938999.717
10 0 59814 85320.000000 0      1240746.208      2131792.577     -6632076.955
10 0 59814 85500.000000 0      2306469.621      2776283.092     -6084556.406
10 0 59814 85680.000000 0      3304246.233      3293548.701     -5315979.418
10 0 59814 85860.000000 0      4194306.518      3667016.144     -4353914.213
10 0 59814 86040.000000 0      4940258.922      3886219.365     -3233054.076
10 0 59814 86220.000000 0      5510610.856      3947118.627     -1994034.816
10 0 59815     0.000000 0      5880144.755      3852159.477      -681999.694
10 0 59815   180.000000 0      6031079.245      3610058.965       655044.159
10 0 59815   360.000000 0      5953947.886      3235321.048      1968014.370
10 0 59815   540.000000 0      5648138.154      2747499.460      3208611.437
10 0 59815   720.000000 0      5122054.224      2170245.921      4331160.215
10 0 59815   900.000000 0      4392889.128      1530190.924      5294344.406
10 0 59815  1080.000000 0      3486028.594       855721.277      6062754.857
10 0 59815  1260.000000 0      2434111.248       175716.256      6608197.044
10 0 59815  1440.000000 0      1275800.676      -481693.383      6910702.476
10 0 59815  1620.000000 0        54326.577     -1090292.052      6959237.333
10 0 59815  1800.000000 0     -1184159.395     -1626830.646      6752083.895
10 0 59815  1980.000000 0     -2392345.761     -2071921.142      6296886.706
10 0 59815  2160.000000 0     -3523578.327     -2410741.536      5610374.965
10 0 59815  2340.000000 0     -4533686.206     -2633536.694      4717772.752
10 0 59815  2520.000000 0     -5382746.723     -2735895.852      3651885.251
10 0 59815  2700.000000 0     -6036704.596     -2718788.787      2451894.777
10 0 59815  2880.000000 0     -6468780.931     -2588364.617      1161909.962
10 0 59815  3060.000000 0     -6660603.640     -2355522.844      -170691.301
10 0 59815  3240.000000 0     -6602991.679     -2035271.402     -1497052.617
10 0 59815  3420.000000 0     -6296353.762     -1645909.713     -2768681.840
10 0 59815  3600.000000 0     -5750682.697     -1208083.900     -3939256.706
10 0 59815  3780.000000 0     -4985160.946      -743766.408     -4966315.264
10 0 59815  3960.000000 0     -4027407.492      -275211.990     -5812766.780
10 0 59815  4140.000000 0     -2912410.316       176057.813     -6448170.492
10 0 59815  4320.000000 0     -1681205.464       590195.338     -6849748.128
10 0 59815  4500.000000 0      -379362.677       949854.785     -7003120.937
10 0 59815  4680.000000 0       944668.862      1240884.429     -6902765.937
99
